{"type": "FeatureCollection", "features": [ {"type": "Feature", "properties": {"norad_id": 66052, "name": "HRC MONOBLOCK CAMERA", "group": "stations", "lat": -12.051662805341214, "lon": 105.60640890695234, "alt_km": 407.11387220934284, "timestamp": "2025-12-17T23:38:05.647045+00:00", "meta": {"OBJECT_NAME": "HRC MONOBLOCK CAMERA", "OBJECT_ID": "1998-067XR", "EPOCH": "2025-12-17T12:54:03.340224", "MEAN_MOTION": 15.5447645, "ECCENTRICITY": 0.00027269, "INCLINATION": 51.6293, "RA_OF_ASC_NODE": 117.5777, "ARG_OF_PERICENTER": 205.53, "MEAN_ANOMALY": 154.5557, "EPHEMERIS_TYPE": 0, "CLASSIFICATION_TYPE": "U", "NORAD_CAT_ID": 66052, "ELEMENT_SET_NO": 999, "REV_AT_EPOCH": 958, "BSTAR": 0.00046532549, "MEAN_MOTION_DOT": 0.00030839, "MEAN_MOTION_DDOT": 0}, "tle": {"line1": "1 66052U 98067XR  25351.53753866  .00030839  00000+0  46533-3 0  9994", "line2": "2 66052  51.6293 117.5777 0002726 205.5300 154.5557 15.54476450  9589"}}, "geometry": {"type": "Point", "coordinates": [105.60640890695234, -12.051662805341214]}}, {"type": "Feature", "properties": {"norad_id": 66174, "name": "HTV-X1", "group": "stations", "lat": 24.422674932132047, "lon": -84.58189092473253, "alt_km": 415.8136010766002, "timestamp": "2025-12-17T23:38:05.647055+00:00", "meta": {"OBJECT_NAME": "HTV-X1", "OBJECT_ID": "2025-241A", "EPOCH": "2025-12-17T13:42:43.375968", "MEAN_MOTION": 15.49636687, "ECCENTRICITY": 0.00031828, "INCLINATION": 51.631, "RA_OF_ASC_NODE": 118.5527, "ARG_OF_PERICENTER": 262.6214, "MEAN_ANOMALY": 97.4413, "EPHEMERIS_TYPE": 0, "CLASSIFICATION_TYPE": "U", "NORAD_CAT_ID": 66174, "ELEMENT_SET_NO": 999, "REV_AT_EPOCH": 51, "BSTAR": 0.00014273627, "MEAN_MOTION_DOT": 7.597e-05, "MEAN_MOTION_DDOT": 0}, "tle": {"line1": "1 66174U 25241A   25351.57133537  .00007597  00000+0  14274-3 0  9996", "line2": "2 66174  51.6310 118.5527 0003182 262.6214  97.4413 15.49636687   517"}}, "geometry": {"type": "Point", "coordinates": [-84.58189092473253, 24.422674932132047]}}, {"type": "Feature", "properties": {"norad_id": 66515, "name": "SZ-21 MODULE", "group": "stations", "lat": 39.44778690120481, "lon": 52.70258216800337, "alt_km": 376.5248324591703, "timestamp": "2025-12-17T23:38:05.647065+00:00", "meta": {"OBJECT_NAME": "SZ-21 MODULE", "OBJECT_ID": "2025-246C", "EPOCH": "2025-12-17T06:26:59.040960", "MEAN_MOTION": 15.62718015, "ECCENTRICITY": 0.00059901, "INCLINATION": 41.4771, "RA_OF_ASC_NODE": 348.414, "ARG_OF_PERICENTER": 284.3104, "MEAN_ANOMALY": 75.707, "EPHEMERIS_TYPE": 0, "CLASSIFICATION_TYPE": "U", "NORAD_CAT_ID": 66515, "ELEMENT_SET_NO": 999, "REV_AT_EPOCH": 515, "BSTAR": 0.00025031156, "MEAN_MOTION_DOT": 0.00022864, "MEAN_MOTION_DDOT": 0}, "tle": {"line1": "1 66515U 25246C   25351.26873890  .00022864  00000+0  25031-3 0  9996", "line2": "2 66515  41.4771 348.4140 0005990 284.3104  75.7070 15.62718015  5151"}}, "geometry": {"type": "Point", "coordinates": [52.70258216800337, 39.44778690120481]}}, {"type": "Feature", "properties": {"norad_id": 66645, "name": "SHENZHOU-22", "group": "stations", "lat": 40.29724720411375, "lon": 91.07147557022454, "alt_km": 378.12462794473504, "timestamp": "2025-12-17T23:38:05.647076+00:00", "meta": {"OBJECT_NAME": "SHENZHOU-22", "OBJECT_ID": "2025-272A", "EPOCH": "2025-12-17T10:54:09.513792", "MEAN_MOTION": 15.59380496, "ECCENTRICITY": 0.00077365, "INCLINATION": 41.4681, "RA_OF_ASC_NODE": 348.0821, "ARG_OF_PERICENTER": 71.5092, "MEAN_ANOMALY": 288.6587, "EPHEMERIS_TYPE": 0, "CLASSIFICATION_TYPE": "U", "NORAD_CAT_ID": 66645, "ELEMENT_SET_NO": 999, "REV_AT_EPOCH": 26357, "BSTAR": 0.00026147589, "MEAN_MOTION_DOT": 0.00020985, "MEAN_MOTION_DDOT": 0}, "tle": {"line1": "1 66645U 25272A   25351.45427678  .00020985  00000+0  26148-3 0  9991", "line2": "2 66645  41.4681 348.0821 0007736  71.5092 288.6587 15.59380496263573"}}, "geometry": {"type": "Point", "coordinates": [91.07147557022454, 40.29724720411375]}}, {"type": "Feature", "properties": {"norad_id": 66664, "name": "SOYUZ-MS 28", "group": "stations", "lat": 24.42267337172621, "lon": -84.58188932841338, "alt_km": 415.81360125611445, "timestamp": "2025-12-17T23:38:05.647088+00:00", "meta": {"OBJECT_NAME": "SOYUZ-MS 28", "OBJECT_ID": "2025-275A", "EPOCH": "2025-12-17T13:42:43.375968", "MEAN_MOTION": 15.49636687, "ECCENTRICITY": 0.00031828, "INCLINATION": 51.631, "RA_OF_ASC_NODE": 118.5527, "ARG_OF_PERICENTER": 262.6214, "MEAN_ANOMALY": 97.4413, "EPHEMERIS_TYPE": 0, "CLASSIFICATION_TYPE": "U", "NORAD_CAT_ID": 66664, "ELEMENT_SET_NO": 999, "REV_AT_EPOCH": 128, "BSTAR": 0.00014273627, "MEAN_MOTION_DOT": 7.597e-05, "MEAN_MOTION_DDOT": 0}, "tle": {"line1": "1 66664U 25275A   25351.57133537  .00007597  00000+0  14274-3 0  9997", "line2": "2 66664  51.6310 118.5527 0003182 262.6214  97.4413 15.49636687  1286"}}, "geometry": {"type": "Point", "coordinates": [-84.58188932841338, 24.42267337172621]}}, {"type": "Feature", "properties": {"norad_id": 66906, "name": "1998-067XS", "group": "stations", "lat": -14.643340232682329, "lon": -51.65251924984542, "alt_km": 414.7788959308973, "timestamp": "2025-12-17T23:38:05.647098+00:00", "meta": {"OBJECT_NAME": "1998-067XS", "OBJECT_ID": "1998-067XS", "EPOCH": "2025-12-17T13:30:08.269344", "MEAN_MOTION": 15.50826829, "ECCENTRICITY": 0.00031669, "INCLINATION": 51.631, "RA_OF_ASC_NODE": 118.4957, "ARG_OF_PERICENTER": 225.2923, "MEAN_ANOMALY": 134.7808, "EPHEMERIS_TYPE": 0, "CLASSIFICATION_TYPE": "U", "NORAD_CAT_ID": 66906, "ELEMENT_SET_NO": 999, "REV_AT_EPOCH": 236, "BSTAR": 0.00042205849, "MEAN_MOTION_DOT": 0.00024423, "MEAN_MOTION_DDOT": 0}, "tle": {"line1": "1 66906U 98067XS  25351.56259571  .00024423  00000+0  42206-3 0  9994", "line2": "2 66906  51.6310 118.4957 0003166 225.2923 134.7808 15.50826829  2369"}}, "geometry": {"type": "Point", "coordinates": [-51.65251924984542, -14.643340232682329]}}, {"type": "Feature", "properties": {"norad_id": 66907, "name": "1998-067XT", "group": "stations", "lat": -39.55351602214831, "lon": -22.803542458309927, "alt_km": 412.3094258002129, "timestamp": "2025-12-17T23:38:05.647108+00:00", "meta": {"OBJECT_NAME": "1998-067XT", "OBJECT_ID": "1998-067XT", "EPOCH": "2025-12-17T14:54:10.641600", "MEAN_MOTION": 15.52051532, "ECCENTRICITY": 0.00040131, "INCLINATION": 51.6305, "RA_OF_ASC_NODE": 118.1347, "ARG_OF_PERICENTER": 256.0378, "MEAN_ANOMALY": 104.0166, "EPHEMERIS_TYPE": 0, "CLASSIFICATION_TYPE": "U", "NORAD_CAT_ID": 66907, "ELEMENT_SET_NO": 999, "REV_AT_EPOCH": 237, "BSTAR": 0.0008696116, "MEAN_MOTION_DOT": 0.00053299, "MEAN_MOTION_DDOT": 0}, "tle": {"line1": "1 66907U 98067XT  25351.62095650  .00053299  00000+0  86961-3 0  9997", "line2": "2 66907  51.6305 118.1347 0004013 256.0378 104.0166 15.52051532  2373"}}, "geometry": {"type": "Point", "coordinates": [-22.803542458309927, -39.55351602214831]}}, {"type": "Feature", "properties": {"norad_id": 66908, "name": "1998-067XU", "group": "stations", "lat": -41.6023831987048, "lon": -18.974362449410112, "alt_km": 411.96735200456806, "timestamp": "2025-12-17T23:38:05.647132+00:00", "meta": {"OBJECT_NAME": "1998-067XU", "OBJECT_ID": "1998-067XU", "EPOCH": "2025-12-17T13:20:34.724544", "MEAN_MOTION": 15.52141962, "ECCENTRICITY": 0.0004125, "INCLINATION": 51.6303, "RA_OF_ASC_NODE": 118.4505, "ARG_OF_PERICENTER": 254.9068, "MEAN_ANOMALY": 105.1466, "EPHEMERIS_TYPE": 0, "CLASSIFICATION_TYPE": "U", "NORAD_CAT_ID": 66908, "ELEMENT_SET_NO": 999, "REV_AT_EPOCH": 236, "BSTAR": 0.00086664567, "MEAN_MOTION_DOT": 0.0005329, "MEAN_MOTION_DDOT": 0}, "tle": {"line1": "1 66908U 98067XU  25351.55595746  .00053290  00000+0  86665-3 0  9993", "line2": "2 66908  51.6303 118.4505 0004125 254.9068 105.1466 15.52141962  2369"}}, "geometry": {"type": "Point", "coordinates": [-18.974362449410112, -41.6023831987048]}}, {"type": "Feature", "properties": {"norad_id": 66909, "name": "SILVERSAT", "group": "stations", "lat": -43.918445286553485, "lon": -13.96909563280264, "alt_km": 411.70822738878906, "timestamp": "2025-12-17T23:38:05.647144+00:00", "meta": {"OBJECT_NAME": "SILVERSAT", "OBJECT_ID": "1998-067XV", "EPOCH": "2025-12-17T14:52:13.127232", "MEAN_MOTION": 15.5228671, "ECCENTRICITY": 0.00039762, "INCLINATION": 51.6309, "RA_OF_ASC_NODE": 118.1253, "ARG_OF_PERICENTER": 257.1224, "MEAN_ANOMALY": 102.9322, "EPHEMERIS_TYPE": 0, "CLASSIFICATION_TYPE": "U", "NORAD_CAT_ID": 66909, "ELEMENT_SET_NO": 999, "REV_AT_EPOCH": 237, "BSTAR": 0.0009399615, "MEAN_MOTION_DOT": 0.00058177, "MEAN_MOTION_DDOT": 0}, "tle": {"line1": "1 66909U 98067XV  25351.61959638  .00058177  00000+0  93996-3 0  9999", "line2": "2 66909  51.6309 118.1253 0003976 257.1224 102.9322 15.52286710  2373"}}, "geometry": {"type": "Point", "coordinates": [-13.96909563280264, -43.918445286553485]}}, {"type": "Feature", "properties": {"norad_id": 66910, "name": "1998-067XW", "group": "stations", "lat": -48.23872179462099, "lon": -1.1702570067337756, "alt_km": 411.40283321069546, "timestamp": "2025-12-17T23:38:05.647154+00:00", "meta": {"OBJECT_NAME": "1998-067XW", "OBJECT_ID": "1998-067XW", "EPOCH": "2025-12-17T14:49:41.645568", "MEAN_MOTION": 15.52327753, "ECCENTRICITY": 0.00045296, "INCLINATION": 51.6302, "RA_OF_ASC_NODE": 118.1137, "ARG_OF_PERICENTER": 233.5237, "MEAN_ANOMALY": 126.5336, "EPHEMERIS_TYPE": 0, "CLASSIFICATION_TYPE": "U", "NORAD_CAT_ID": 66910, "ELEMENT_SET_NO": 999, "REV_AT_EPOCH": 237, "BSTAR": 0.00083127757, "MEAN_MOTION_DOT": 0.00051432, "MEAN_MOTION_DDOT": 0}, "tle": {"line1": "1 66910U 98067XW  25351.61784312  .00051432  00000+0  83128-3 0  9999", "line2": "2 66910  51.6302 118.1137 0004529 233.5237 126.5336 15.52327753  2376"}}, "geometry": {"type": "Point", "coordinates": [-1.1702570067337756, -48.23872179462099]}}]}